CCSDS_OMM_VERS = 2.0
CREATION_DATE  = 
ORIGINATOR     = 

OBJECT_NAME    = STARLINK-36072
OBJECT_ID      = 2025-281J
CENTER_NAME    = EARTH
REF_FRAME      = TEME
TIME_SYSTEM    = UTC
MEAN_ELEMENT_THEORY = SGP/SGP4

EPOCH          = 2025-12-23T22:00:01.999584
MEAN_MOTION    = 15.60047859
ECCENTRICITY   = .00013266
INCLINATION    = 43.0003
RA_OF_ASC_NODE = 54.3476
ARG_OF_PERICENTER = 271.1487
MEAN_ANOMALY   = 71.0622

EPHEMERIS_TYPE = 0
CLASSIFICATION_TYPE = U
NORAD_CAT_ID   = 66856
ELEMENT_SET_NO = 999
REV_AT_EPOCH   = 318
BSTAR          = -.27210212E-1
MEAN_MOTION_DOT = -.1989231E-1
MEAN_MOTION_DDOT = 0

CCSDS_OMM_VERS = 2.0
CREATION_DATE  = 
ORIGINATOR     = 

OBJECT_NAME    = STARLINK-36083
OBJECT_ID      = 2025-281K
CENTER_NAME    = EARTH
REF_FRAME      = TEME
TIME_SYSTEM    = UTC
MEAN_ELEMENT_THEORY = SGP/SGP4

EPOCH          = 2025-12-23T22:00:01.999584
MEAN_MOTION    = 15.60047371
ECCENTRICITY   = .00014397
INCLINATION    = 43.0004
RA_OF_ASC_NODE = 54.3427
ARG_OF_PERICENTER = 275.1975
MEAN_ANOMALY   = 68.9309

EPHEMERIS_TYPE = 0
CLASSIFICATION_TYPE = U
NORAD_CAT_ID   = 66857
ELEMENT_SET_NO = 999
REV_AT_EPOCH   = 318
BSTAR          = -.27204988E-1
MEAN_MOTION_DOT = -.1988946E-1
MEAN_MOTION_DDOT = 0

CCSDS_OMM_VERS = 2.0
CREATION_DATE  = 
ORIGINATOR     = 

OBJECT_NAME    = STARLINK-35118
OBJECT_ID      = 2025-281L
CENTER_NAME    = EARTH
REF_FRAME      = TEME
TIME_SYSTEM    = UTC
MEAN_ELEMENT_THEORY = SGP/SGP4

EPOCH          = 2025-12-23T22:00:01.999584
MEAN_MOTION    = 15.60048026
ECCENTRICITY   = .00015536
INCLINATION    = 43.0004
RA_OF_ASC_NODE = 54.3378
ARG_OF_PERICENTER = 270.9610
MEAN_ANOMALY   = 75.0827

EPHEMERIS_TYPE = 0
CLASSIFICATION_TYPE = U
NORAD_CAT_ID   = 66858
ELEMENT_SET_NO = 999
REV_AT_EPOCH   = 297
BSTAR          = -.27175325E-1
MEAN_MOTION_DOT = -.1987172E-1
MEAN_MOTION_DDOT = 0

CCSDS_OMM_VERS = 2.0
CREATION_DATE  = 
ORIGINATOR     = 

OBJECT_NAME    = STARLINK-35646
OBJECT_ID      = 2025-281M
CENTER_NAME    = EARTH
REF_FRAME      = TEME
TIME_SYSTEM    = UTC
MEAN_ELEMENT_THEORY = SGP/SGP4

EPOCH          = 2025-12-23T22:00:01.999584
MEAN_MOTION    = 15.60046391
ECCENTRICITY   = .00015253
INCLINATION    = 43.0004
RA_OF_ASC_NODE = 54.3332
ARG_OF_PERICENTER = 270.5445
MEAN_ANOMALY   = 77.4189

EPHEMERIS_TYPE = 0
CLASSIFICATION_TYPE = U
NORAD_CAT_ID   = 66859
ELEMENT_SET_NO = 999
REV_AT_EPOCH   = 318
BSTAR          = -.27173637E-1
MEAN_MOTION_DOT = -.1986933E-1
MEAN_MOTION_DDOT = 0

CCSDS_OMM_VERS = 2.0
CREATION_DATE  = 
ORIGINATOR     = 

OBJECT_NAME    = STARLINK-35987
OBJECT_ID      = 2025-281N
CENTER_NAME    = EARTH
REF_FRAME      = TEME
TIME_SYSTEM    = UTC
MEAN_ELEMENT_THEORY = SGP/SGP4

EPOCH          = 2025-12-23T22:00:01.999584
MEAN_MOTION    = 15.60040781
ECCENTRICITY   = .00013744
INCLINATION    = 43.0005
RA_OF_ASC_NODE = 54.3095
ARG_OF_PERICENTER = 271.5997
MEAN_ANOMALY   = 85.9512

EPHEMERIS_TYPE = 0
CLASSIFICATION_TYPE = U
NORAD_CAT_ID   = 66860
ELEMENT_SET_NO = 999
REV_AT_EPOCH   = 318
BSTAR          = -.27056517E-1
MEAN_MOTION_DOT = -.1978934E-1
MEAN_MOTION_DDOT = 0

CCSDS_OMM_VERS = 2.0
CREATION_DATE  = 
ORIGINATOR     = 

OBJECT_NAME    = STARLINK-35991
OBJECT_ID      = 2025-281P
CENTER_NAME    = EARTH
REF_FRAME      = TEME
TIME_SYSTEM    = UTC
MEAN_ELEMENT_THEORY = SGP/SGP4

EPOCH          = 2025-12-23T22:00:01.999584
MEAN_MOTION    = 15.60040988
ECCENTRICITY   = .00014193
INCLINATION    = 43.0006
RA_OF_ASC_NODE = 54.3240
ARG_OF_PERICENTER = 270.9741
MEAN_ANOMALY   = 80.8259

EPHEMERIS_TYPE = 0
CLASSIFICATION_TYPE = U
NORAD_CAT_ID   = 66861
ELEMENT_SET_NO = 999
REV_AT_EPOCH   = 318
BSTAR          = -.27060498E-1
MEAN_MOTION_DOT = -.1979235E-1
MEAN_MOTION_DDOT = 0

CCSDS_OMM_VERS = 2.0
CREATION_DATE  = 
ORIGINATOR     = 

OBJECT_NAME    = STARLINK-35974
OBJECT_ID      = 2025-281Q
CENTER_NAME    = EARTH
REF_FRAME      = TEME
TIME_SYSTEM    = UTC
MEAN_ELEMENT_THEORY = SGP/SGP4

EPOCH          = 2025-12-23T22:00:01.999584
MEAN_MOTION    = 15.60046706
ECCENTRICITY   = .00013581
INCLINATION    = 43.0004
RA_OF_ASC_NODE = 54.3284
ARG_OF_PERICENTER = 269.6972
MEAN_ANOMALY   = 80.1831

EPHEMERIS_TYPE = 0
CLASSIFICATION_TYPE = U
NORAD_CAT_ID   = 66862
ELEMENT_SET_NO = 999
REV_AT_EPOCH   = 308
BSTAR          = -.27183324E-1
MEAN_MOTION_DOT = -.1987453E-1
MEAN_MOTION_DDOT = 0

CCSDS_OMM_VERS = 2.0
CREATION_DATE  = 
ORIGINATOR     = 

OBJECT_NAME    = STARLINK-36134
OBJECT_ID      = 2025-281R
CENTER_NAME    = EARTH
REF_FRAME      = TEME
TIME_SYSTEM    = UTC
MEAN_ELEMENT_THEORY = SGP/SGP4

EPOCH          = 2025-12-23T22:00:01.999584
MEAN_MOTION    = 15.60039822
ECCENTRICITY   = .00015384
INCLINATION    = 43.0005
RA_OF_ASC_NODE = 54.3194
ARG_OF_PERICENTER = 271.9844
MEAN_ANOMALY   = 81.7344

EPHEMERIS_TYPE = 0
CLASSIFICATION_TYPE = U
NORAD_CAT_ID   = 66863
ELEMENT_SET_NO = 999
REV_AT_EPOCH   = 318
BSTAR          = -.27053602E-1
MEAN_MOTION_DOT = -.1978801E-1
MEAN_MOTION_DDOT = 0

CCSDS_OMM_VERS = 2.0
CREATION_DATE  = 
ORIGINATOR     = 

OBJECT_NAME    = STARLINK-36070
OBJECT_ID      = 2025-281S
CENTER_NAME    = EARTH
REF_FRAME      = TEME
TIME_SYSTEM    = UTC
MEAN_ELEMENT_THEORY = SGP/SGP4

EPOCH          = 2025-12-23T22:00:01.999584
MEAN_MOTION    = 15.60039731
ECCENTRICITY   = .00016765
INCLINATION    = 43.0004
RA_OF_ASC_NODE = 54.3140
ARG_OF_PERICENTER = 273.3813
MEAN_ANOMALY   = 82.2529

EPHEMERIS_TYPE = 0
CLASSIFICATION_TYPE = U
NORAD_CAT_ID   = 66864
ELEMENT_SET_NO = 999
REV_AT_EPOCH   = 321
BSTAR          = -.27005987E-1
MEAN_MOTION_DOT = -.197584E-1
MEAN_MOTION_DDOT = 0

CCSDS_OMM_VERS = 2.0
CREATION_DATE  = 
ORIGINATOR     = 

OBJECT_NAME    = STARLINK-36117
OBJECT_ID      = 2025-281T
CENTER_NAME    = EARTH
REF_FRAME      = TEME
TIME_SYSTEM    = UTC
MEAN_ELEMENT_THEORY = SGP/SGP4

EPOCH          = 2025-12-23T22:00:01.999584
MEAN_MOTION    = 15.60039632
ECCENTRICITY   = .00013932
INCLINATION    = 43.0006
RA_OF_ASC_NODE = 54.3053
ARG_OF_PERICENTER = 272.2216
MEAN_ANOMALY   = 87.2449

EPHEMERIS_TYPE = 0
CLASSIFICATION_TYPE = U
NORAD_CAT_ID   = 66865
ELEMENT_SET_NO = 999
REV_AT_EPOCH   = 318
BSTAR          = -.26995994E-1
MEAN_MOTION_DOT = -.1974985E-1
MEAN_MOTION_DDOT = 0

CCSDS_OMM_VERS = 2.0
CREATION_DATE  = 
ORIGINATOR     = 

OBJECT_NAME    = STARLINK-36126
OBJECT_ID      = 2025-281U
CENTER_NAME    = EARTH
REF_FRAME      = TEME
TIME_SYSTEM    = UTC
MEAN_ELEMENT_THEORY = SGP/SGP4

EPOCH          = 2025-12-23T22:00:01.999584
MEAN_MOTION    = 15.60043414
ECCENTRICITY   = .00014809
INCLINATION    = 43.0005
RA_OF_ASC_NODE = 54.3001
ARG_OF_PERICENTER = 271.1964
MEAN_ANOMALY   = 90.1874

EPHEMERIS_TYPE = 0
CLASSIFICATION_TYPE = U
NORAD_CAT_ID   = 66866
ELEMENT_SET_NO = 999
REV_AT_EPOCH   = 321
BSTAR          = -.27072762E-1
MEAN_MOTION_DOT = -.198023E-1
MEAN_MOTION_DDOT = 0

CCSDS_OMM_VERS = 2.0
CREATION_DATE  = 
ORIGINATOR     = 

OBJECT_NAME    = STARLINK-36101
OBJECT_ID      = 2025-281V
CENTER_NAME    = EARTH
REF_FRAME      = TEME
TIME_SYSTEM    = UTC
MEAN_ELEMENT_THEORY = SGP/SGP4

EPOCH          = 2025-12-23T22:00:01.999584
MEAN_MOTION    = 15.60046580
ECCENTRICITY   = .00016136
INCLINATION    = 43.0007
RA_OF_ASC_NODE = 54.2953
ARG_OF_PERICENTER = 270.2752
MEAN_ANOMALY   = 93.0232

EPHEMERIS_TYPE = 0
CLASSIFICATION_TYPE = U
NORAD_CAT_ID   = 66867
ELEMENT_SET_NO = 999
REV_AT_EPOCH   = 302
BSTAR          = -.27125315E-1
MEAN_MOTION_DOT = -.1983912E-1
MEAN_MOTION_DDOT = 0

