STARLINK-36072          
1 66856U 25281J   25357.91668981 -.01989231  00000+0 -27210-1 0  9996
2 66856  43.0003  54.3476 0001326 271.1487  71.0622 15.60047859  3189
STARLINK-36083          
1 66857U 25281K   25357.91668981 -.01988946  00000+0 -27205-1 0  9993
2 66857  43.0004  54.3427 0001439 275.1975  68.9309 15.60047371  3184
STARLINK-35118          
1 66858U 25281L   25357.91668981 -.01987172  00000+0 -27175-1 0  9990
2 66858  43.0004  54.3378 0001553 270.9610  75.0827 15.60048026  2974
STARLINK-35646          
1 66859U 25281M   25357.91668981 -.01986933  00000+0 -27174-1 0  9994
2 66859  43.0004  54.3332 0001525 270.5445  77.4189 15.60046391  3180
STARLINK-35987          
1 66860U 25281N   25357.91668981 -.01978934  00000+0 -27057-1 0  9998
2 66860  43.0005  54.3095 0001374 271.5997  85.9512 15.60040781  3185
STARLINK-35991          
1 66861U 25281P   25357.91668981 -.01979235  00000+0 -27060-1 0  9998
2 66861  43.0006  54.3240 0001419 270.9741  80.8259 15.60040988  3180
STARLINK-35974          
1 66862U 25281Q   25357.91668981 -.01987453  00000+0 -27183-1 0  9996
2 66862  43.0004  54.3284 0001358 269.6972  80.1831 15.60046706  3082
STARLINK-36134          
1 66863U 25281R   25357.91668981 -.01978801  00000+0 -27054-1 0  9991
2 66863  43.0005  54.3194 0001538 271.9844  81.7344 15.60039822  3186
STARLINK-36070          
1 66864U 25281S   25357.91668981 -.01975840  00000+0 -27006-1 0  9999
2 66864  43.0004  54.3140 0001676 273.3813  82.2529 15.60039731  3216
STARLINK-36117          
1 66865U 25281T   25357.91668981 -.01974985  00000+0 -26996-1 0  9996
2 66865  43.0006  54.3053 0001393 272.2216  87.2449 15.60039632  3185
STARLINK-36126          
1 66866U 25281U   25357.91668981 -.01980230  00000+0 -27073-1 0  9994
2 66866  43.0005  54.3001 0001480 271.1964  90.1874 15.60043414  3215
STARLINK-36101          
1 66867U 25281V   25357.91668981 -.01983912  00000+0 -27125-1 0  9993
2 66867  43.0007  54.2953 0001613 270.2752  93.0232 15.60046580  3022
